[
  {
    "id": 1,
    "city": "Colombo",
    "places": [
      {
        "placeName": "Victoria Park",
        "placeDesc": "One of the idiotic place for lovers in Colombo, Sri Lanka"
      },
      {
        "placeName": "Port City",
        "placeDesc": "One of the idiotic place for lovers in Colombo, Sri Lanka"
      },
      {
        "placeName": "Victoria Park",
        "placeDesc": "One of the idiotic place for lovers in Colombo, Sri Lanka"
      },
      {
        "placeName": "Victoria Park",
        "placeDesc": "One of the idiotic place for lovers in Colombo, Sri Lanka"
      }
    ]
  },
  {
    "id": 2,
    "city": "Kandy",
    "places": [
      {
        "placeName": "Royal Botanic Gardens",
        "placeDesc": "One of the idiotic place for lovers in Colombo, Sri Lanka"
      },
      {
        "placeName": "Hortons Plain National Park",
        "placeDesc": "One of the idiotic place for lovers in Colombo, Sri Lanka"
      },
      {
        "placeName": "Hanthana Mountain Range",
        "placeDesc": "One of the idiotic place for lovers in Colombo, Sri Lanka"
      },
      {
        "placeName": "Asupini Ella Falls",
        "placeDesc": "One of the idiotic place for lovers in Colombo, Sri Lanka"
      }
    ]
  }
]
